[{"OBJECT_NAME":"STARLINK-1526","OBJECT_ID":"2020-055C","EPOCH":"2026-03-10T00:00:02.999808","MEAN_MOTION":15.19094638,"ECCENTRICITY":8.938e-5,"INCLINATION":53.1067,"RA_OF_ASC_NODE":124.7929,"ARG_OF_PERICENTER":56.7447,"MEAN_ANOMALY":353.5398,"EPHEMERIS_TYPE":0,"CLASSIFICATION_TYPE":"U","NORAD_CAT_ID":46029,"ELEMENT_SET_NO":999,"REV_AT_EPOCH":569,"BSTAR":0.0056326704,"MEAN_MOTION_DOT":0.00121352,"MEAN_MOTION_DDOT":0},{"OBJECT_NAME":"CSTP 1.1 (STC 1.1)","OBJECT_ID":"2023-091AN","EPOCH":"2026-03-09T23:25:54.009120","MEAN_MOTION":15.18093425,"ECCENTRICITY":0.00112554,"INCLINATION":97.5238,"RA_OF_ASC_NODE":128.3525,"ARG_OF_PERICENTER":94.9808,"MEAN_ANOMALY":265.2711,"EPHEMERIS_TYPE":0,"CLASSIFICATION_TYPE":"U","NORAD_CAT_ID":57202,"ELEMENT_SET_NO":999,"REV_AT_EPOCH":14890,"BSTAR":0.00035864099,"MEAN_MOTION_DOT":7.256e-5,"MEAN_MOTION_DDOT":0}]
